     2              NAVIGATION DATA                         RINEX VERSION / TYPE
CCRINEXN V1.6.0 UX  CDDIS               06-OCT-08 02:51     PGM / RUN BY / DATE 
IGS BROADCAST EPHEMERIS FILE                                COMMENT             
    0.1025E-07  0.7451E-08 -0.5960E-07 -0.5960E-07          ION ALPHA           
    0.8806E+05  0.0000E+00 -0.1966E+06 -0.6554E+05          ION BETA            
   -0.465661287308E-08-0.266453525910E-13   233472     1500 DELTA-UTC: A0,A1,T,W
    14                                                      LEAP SECONDS        
                                                            END OF HEADER       
20 08 10  5 22  0  0.0 0.102716498077E-03-0.102318153950E-11 0.000000000000E+00
    0.940000000000E+02 0.785625000000E+02 0.494020577940E-08-0.388467323440E+00
    0.404752790928E-05 0.352284149267E-02 0.558048486710E-05 0.515376386070E+04
    0.792000000000E+05-0.260770320892E-07-0.151455614700E+01 0.931322574616E-08
    0.945082730329E+00 0.262718750000E+03 0.135208696085E+01-0.835820529566E-08
   -0.130362572982E-09 0.100000000000E+01 0.150000000000E+04 0.000000000000E+00
    0.200000000000E+01 0.000000000000E+00-0.651925802231E-08 0.940000000000E+02
    0.720180000000E+05 0.400000000000E+01 0.000000000000E+00 0.000000000000E+00
21 08 10  5 22  0  0.0 0.478778965771E-04-0.147792889038E-11 0.000000000000E+00
    0.680000000000E+02 0.346250000000E+02 0.522878922863E-08 0.743886890058E+00
    0.200420618057E-05 0.143124392489E-01 0.832602381706E-05 0.515368151093E+04
    0.792000000000E+05-0.540167093277E-07-0.251961707175E+01 0.208616256714E-06
    0.935609718415E+00 0.204718750000E+03-0.267362292717E+01-0.839570685775E-08
   -0.388230457071E-09 0.100000000000E+01 0.150000000000E+04 0.000000000000E+00
    0.200000000000E+01 0.000000000000E+00-0.116415321827E-07 0.680000000000E+02
    0.720000000000E+05 0.000000000000E+00 0.000000000000E+00 0.000000000000E+00
22 08 10  5 22  0  0.0 0.210517086089E-03-0.113686837722E-12 0.000000000000E+00
    0.130000000000E+03 0.681875000000E+02 0.485448792319E-08-0.167393568088E+01
    0.350177288055E-05 0.515945185907E-02 0.543333590031E-05 0.515367030525E+04
    0.792000000000E+05 0.111758708954E-06-0.145463496249E+01 0.763684511185E-07
    0.943185212936E+00 0.267406250000E+03-0.182314388768E+01-0.822248535666E-08
   -0.149649090628E-09 0.100000000000E+01 0.150000000000E+04 0.000000000000E+00
    0.280000000000E+01 0.000000000000E+00-0.176951289177E-07 0.130000000000E+03
    0.782700000000E+05 0.000000000000E+00 0.000000000000E+00 0.000000000000E+00
23 08 10  5 22  0  0.0 0.375678297132E-03 0.136424205266E-11 0.000000000000E+00
    0.620000000000E+02-0.103125000000E+02 0.425624871842E-08-0.300115653515E+01
   -0.556930899620E-06 0.586987542920E-02 0.365264713764E-05 0.515369099999E+04
    0.792000000000E+05-0.707805156708E-07-0.443268557995E+00 0.186264514923E-08
    0.971346264539E+00 0.316187500000E+03 0.284718695571E+01-0.803747765035E-08
   -0.127505311108E-09 0.100000000000E+01 0.150000000000E+04 0.000000000000E+00
    0.200000000000E+01 0.000000000000E+00-0.200234353542E-07 0.620000000000E+02
    0.720000000000E+05 0.000000000000E+00 0.000000000000E+00 0.000000000000E+00
24 08 10  5 22  0  0.0 0.130827538669E-03 0.306954461848E-11 0.000000000000E+00
    0.710000000000E+02 0.346875000000E+02 0.485055918812E-08-0.595881080496E+00
    0.176578760147E-05 0.747020344716E-02 0.851601362228E-05 0.515366116142E+04
    0.792000000000E+05-0.372529029846E-07-0.249143817840E+01-0.949949026108E-07
    0.952245929185E+00 0.211687500000E+03-0.698506390041E+00-0.816748306560E-08
   -0.185364864048E-09 0.100000000000E+01 0.150000000000E+04 0.000000000000E+00
    0.280000000000E+01 0.000000000000E+00-0.139698386192E-08 0.710000000000E+02
    0.720000000000E+05 0.000000000000E+00 0.000000000000E+00 0.000000000000E+00
25 08 10  5 22  0  0.0-0.925608910620E-04 0.387672116631E-10 0.000000000000E+00
    0.940000000000E+02-0.703437500000E+02 0.422874757288E-08-0.852325536151E-01
   -0.363960862160E-05 0.115856751800E-01 0.689923763275E-05 0.515369870377E+04
    0.792000000000E+05-0.203028321266E-06 0.504314640192E+00-0.106170773506E-06
    0.966737149488E+00 0.251593750000E+03-0.125092492634E+01-0.815391107170E-08
    0.560737642688E-10 0.100000000000E+01 0.150000000000E+04 0.000000000000E+00
    0.400000000000E+01 0.000000000000E+00-0.745058059692E-08 0.940000000000E+02
    0.720180000000E+05 0.400000000000E+01 0.000000000000E+00 0.000000000000E+00
26 08 10  5 22  0  0.0 0.335308257490E-03 0.511590769747E-11 0.000000000000E+00
    0.780000000000E+02-0.362500000000E+01 0.362979405263E-08 0.279697937024E+01
   -0.394880771637E-06 0.191907044500E-01 0.350177288055E-05 0.515363528252E+04
    0.792000000000E+05 0.111758708954E-07-0.398511340077E+00-0.175088644028E-06
    0.993534195293E+00 0.326187500000E+03 0.956252377578E+00-0.756067207520E-08
   -0.107147320259E-09 0.100000000000E+01 0.150000000000E+04 0.000000000000E+00
    0.240000000000E+01 0.000000000000E+00-0.605359673500E-08 0.780000000000E+02
    0.754860000000E+05 0.400000000000E+01 0.000000000000E+00 0.000000000000E+00
27 08 10  5 22  0  0.0 0.222894828767E-03 0.295585778076E-11 0.000000000000E+00
    0.148000000000E+03-0.656250000000E+02 0.416803075807E-08-0.127356418049E+00
   -0.332295894623E-05 0.212179734372E-01 0.699423253536E-05 0.515372520828E+04
    0.792000000000E+05-0.359490513802E-06 0.539574529571E+00 0.193715095520E-06
    0.971334308110E+00 0.254218750000E+03-0.168406425418E+01-0.827748764773E-08
    0.964325882329E-10 0.100000000000E+01 0.150000000000E+04 0.000000000000E+00
    0.200000000000E+01 0.000000000000E+00-0.419095158577E-08 0.148000000000E+03
    0.720180000000E+05 0.400000000000E+01 0.000000000000E+00 0.000000000000E+00
28 08 10  5 22  0  0.0-0.229510478675E-04-0.113686837722E-12 0.000000000000E+00
    0.570000000000E+02-0.346562500000E+02 0.442268422255E-08-0.132971073938E+01
   -0.156834721565E-05 0.140463582938E-01 0.762380659580E-05 0.515363378906E+04
    0.792000000000E+05 0.294297933578E-06 0.167482250767E+01 0.258907675743E-06
    0.964353301071E+00 0.230156250000E+03-0.209080904058E+01-0.784711257802E-08
    0.371801201298E-09 0.100000000000E+01 0.150000000000E+04 0.000000000000E+00
    0.280000000000E+01 0.000000000000E+00-0.102445483208E-07 0.570000000000E+02
    0.720180000000E+05 0.400000000000E+01 0.000000000000E+00 0.000000000000E+00
29 08 10  5 22  0  0.0-0.354745425284E-04 0.125055521494E-11 0.000000000000E+00
    0.800000000000E+01-0.984375000000E+01 0.485627371186E-08 0.892826278347E+00
   -0.467523932457E-06 0.339938199613E-02 0.721029937267E-05 0.515358172035E+04
    0.792000000000E+05-0.800937414169E-07 0.271610293609E+01-0.484287738800E-07
    0.960037476226E+00 0.241937500000E+03-0.137054285592E+01-0.808105089392E-08
    0.753602819154E-10 0.100000000000E+01 0.150000000000E+04 0.000000000000E+00
    0.200000000000E+01 0.000000000000E+00-0.884756445885E-08 0.800000000000E+01
    0.720000000000E+05 0.000000000000E+00 0.000000000000E+00 0.000000000000E+00
30 08 10  5 22  0  0.0 0.100384000689E-03 0.204636307899E-11 0.000000000000E+00
    0.450000000000E+02-0.294375000000E+02 0.484805908398E-08-0.902583955102E+00
   -0.136345624924E-05 0.111342661548E-01 0.765919685364E-05 0.515368333435E+04
    0.792000000000E+05-0.651925802231E-07 0.160576117193E+01 0.156462192535E-06
    0.949470264493E+00 0.231656250000E+03 0.140615617461E+01-0.825320092180E-08
    0.363586573412E-09 0.100000000000E+01 0.150000000000E+04 0.000000000000E+00
    0.240000000000E+01 0.000000000000E+00-0.791624188423E-08 0.450000000000E+02
    0.720060000000E+05 0.400000000000E+01 0.000000000000E+00 0.000000000000E+00
31 08 10  5 22  0  0.0-0.306568108499E-04-0.227373675443E-11 0.000000000000E+00
    0.560000000000E+02-0.624375000000E+02 0.403088218814E-08 0.156403893703E+01
   -0.329501926899E-05 0.672861863859E-02 0.675208866596E-05 0.515355699348E+04
    0.792000000000E+05 0.130385160446E-06 0.596008373387E+00-0.119209289551E-06
    0.969722981380E+00 0.250781250000E+03-0.124010502916E+01-0.784354100068E-08
    0.113576159474E-09 0.100000000000E+01 0.150000000000E+04 0.000000000000E+00
    0.200000000000E+01 0.000000000000E+00-0.130385160446E-07 0.560000000000E+02
    0.720000000000E+05 0.000000000000E+00 0.000000000000E+00 0.000000000000E+00
 5 08 10  5 23 59 44.0-0.222539529204E-03-0.778754838393E-10 0.000000000000E+00
    0.300000000000E+02-0.400625000000E+02 0.486555981295E-08 0.678398367455E+00
   -0.220723450184E-05 0.933222437743E-02 0.772625207901E-05 0.515368373871E+04
    0.863840000000E+05-0.111758708954E-06 0.155322775737E+01 0.130385160446E-07
    0.943458439220E+00 0.222687500000E+03 0.128227542902E+01-0.827320175492E-08
    0.257153568621E-09 0.100000000000E+01 0.150000000000E+04 0.000000000000E+00
    0.200000000000E+01 0.630000000000E+02-0.419095158577E-08 0.300000000000E+02
    0.837180000000E+05 0.400000000000E+01 0.000000000000E+00 0.000000000000E+00
17 08 10  5 23 59 44.0 0.392422080040E-04 0.227373675443E-12 0.000000000000E+00
    0.000000000000E+00-0.125937500000E+02 0.476376985871E-08-0.716644782149E+00
   -0.581145286560E-06 0.385049253236E-02 0.742264091969E-05 0.515359327698E+04
    0.863840000000E+05 0.838190317154E-07 0.270788570914E+01 0.279396772385E-07
    0.959882322060E+00 0.235375000000E+03-0.279428980852E+01-0.798997567170E-08
    0.128576784311E-10 0.100000000000E+01 0.150000000000E+04 0.000000000000E+00
    0.200000000000E+01 0.000000000000E+00-0.102445483208E-07 0.000000000000E+00
    0.816180000000E+05 0.400000000000E+01 0.000000000000E+00 0.000000000000E+00
